{
  "norad_id": 63973,
  "name": "STARLINK-34028",
  "history": [
    {
      "epoch": "2026-04-13T23:57:17.950752Z",
      "apogee_km": 483.85809966101715,
      "perigee_km": 482.19289552285227,
      "latitude_deg": 1.915746664418609e-05,
      "longitude_deg": 132.06896061662655,
      "height_km": 482.6935195591679,
      "semi_major_axis_km": 6861.162497591935,
      "eccentricity": 0.00012135,
      "inclination_deg": 43.0008,
      "raan_deg": 333.5746,
      "arg_perigee_deg": 277.4958,
      "mean_anomaly_deg": 82.5756,
      "mean_motion_rev_day": 15.27587881
    },
    {
      "epoch": "2026-04-15T21:27:50.023872Z",
      "apogee_km": 483.97483984360315,
      "perigee_km": 482.1017389895924,
      "latitude_deg": 5.4693750784361547e-05,
      "longitude_deg": 156.85717932225052,
      "height_km": 482.81444661742626,
      "semi_major_axis_km": 6861.1752894165975,
      "eccentricity": 0.0001365,
      "inclination_deg": 43.0015,
      "raan_deg": 322.8654,
      "arg_perigee_deg": 270.0414,
      "mean_anomaly_deg": 90.0282,
      "mean_motion_rev_day": 15.27583609
    },
    {
      "epoch": "2026-04-16T21:00:10.992672Z",
      "apogee_km": 483.58302561814617,
      "perigee_km": 482.46740064229107,
      "latitude_deg": 2.3781737735218446e-05,
      "longitude_deg": 157.26435935183892,
      "height_km": 482.82962758398924,
      "semi_major_axis_km": 6861.162213130218,
      "eccentricity": 8.13e-05,
      "inclination_deg": 43.0062,
      "raan_deg": 317.3267,
      "arg_perigee_deg": 267.1701,
      "mean_anomaly_deg": 92.9058,
      "mean_motion_rev_day": 15.27587976
    },
    {
      "epoch": "2026-04-17T22:06:41.312736Z",
      "apogee_km": 483.899649604813,
      "perigee_km": 482.17502482341115,
      "latitude_deg": -4.168415245180029e-06,
      "longitude_deg": 133.69823099279554,
      "height_km": 482.7492839401989,
      "semi_major_axis_km": 6861.174337214112,
      "eccentricity": 0.00012568,
      "inclination_deg": 43.0052,
      "raan_deg": 311.4181,
      "arg_perigee_deg": 274.3377,
      "mean_anomaly_deg": 85.7331,
      "mean_motion_rev_day": 15.27583927
    },
    {
      "epoch": "2026-04-18T20:04:52.220064Z",
      "apogee_km": 483.8246381106701,
      "perigee_km": 482.1615001819091,
      "latitude_deg": 1.4823960476238992e-05,
      "longitude_deg": 158.07974075439324,
      "height_km": 482.77687356790295,
      "semi_major_axis_km": 6861.130069146289,
      "eccentricity": 0.0001212,
      "inclination_deg": 43.0038,
      "raan_deg": 306.2473,
      "arg_perigee_deg": 269.5286,
      "mean_anomaly_deg": 90.5427,
      "mean_motion_rev_day": 15.27598711
    },
    {
      "epoch": "2026-04-19T19:37:13.639872Z",
      "apogee_km": 484.36108101334503,
      "perigee_km": 481.8388902974175,
      "latitude_deg": -1.4949809199350605e-05,
      "longitude_deg": 158.4850347635,
      "height_km": 482.65702968705443,
      "semi_major_axis_km": 6861.2369856553805,
      "eccentricity": 0.0001838,
      "inclination_deg": 43.0031,
      "raan_deg": 300.7086,
      "arg_perigee_deg": 280.0636,
      "mean_anomaly_deg": 80.0008,
      "mean_motion_rev_day": 15.27563005
    },
    {
      "epoch": "2026-04-20T05:02:10.085280Z",
      "apogee_km": 484.0684607863959,
      "perigee_km": 482.07322154618487,
      "latitude_deg": -3.137179712585207e-05,
      "longitude_deg": 14.646239150639918,
      "height_km": 482.6451499750169,
      "semi_major_axis_km": 6861.20784116629,
      "eccentricity": 0.0001454,
      "inclination_deg": 43.0027,
      "raan_deg": 298.4917,
      "arg_perigee_deg": 281.7259,
      "mean_anomaly_deg": 78.3429,
      "mean_motion_rev_day": 15.27572738
    },
    {
      "epoch": "2026-04-21T20:16:03.781344Z",
      "apogee_km": 483.9741747152648,
      "perigee_km": 481.9611266107604,
      "latitude_deg": -2.3607465977445445e-05,
      "longitude_deg": 135.3297260397642,
      "height_km": 482.59651687567185,
      "semi_major_axis_km": 6861.104650663013,
      "eccentricity": 0.0001467,
      "inclination_deg": 43.0026,
      "raan_deg": 289.2601,
      "arg_perigee_deg": 278.4663,
      "mean_anomaly_deg": 81.6022,
      "mean_motion_rev_day": 15.276072
    },
    {
      "epoch": "2026-04-22T19:48:25.430976Z",
      "apogee_km": 483.4722525125235,
      "perigee_km": 482.5885341522617,
      "latitude_deg": -1.6797732349374376e-05,
      "longitude_deg": 135.7313974513238,
      "height_km": 482.624970945382,
      "semi_major_axis_km": 6861.167393332392,
      "eccentricity": 6.44e-05,
      "inclination_deg": 42.9989,
      "raan_deg": 283.7187,
      "arg_perigee_deg": 294.2259,
      "mean_anomaly_deg": 65.8525,
      "mean_motion_rev_day": 15.27586246
    },
    {
      "epoch": "2026-04-23T11:29:59.684064Z",
      "apogee_km": 483.84705751098954,
      "perigee_km": 482.19845804439046,
      "latitude_deg": -5.612455449511421e-05,
      "longitude_deg": -103.99704933430617,
      "height_km": 482.0404962203621,
      "semi_major_axis_km": 6861.15975777769,
      "eccentricity": 0.00012014,
      "inclination_deg": 42.9996,
      "raan_deg": 280.0275,
      "arg_perigee_deg": 23.2711,
      "mean_anomaly_deg": 336.8194,
      "mean_motion_rev_day": 15.27588796
    },
    {
      "epoch": "2026-04-24T11:02:19.844160Z",
      "apogee_km": 485.3476050813315,
      "perigee_km": 480.6847653766499,
      "latitude_deg": 1.8757091560002774e-05,
      "longitude_deg": -103.58668085870328,
      "height_km": 482.58600270323024,
      "semi_major_axis_km": 6861.153185228991,
      "eccentricity": 0.0003398,
      "inclination_deg": 42.9993,
      "raan_deg": 274.4885,
      "arg_perigee_deg": 275.1236,
      "mean_anomaly_deg": 84.9228,
      "mean_motion_rev_day": 15.27590991
    },
    {
      "epoch": "2026-04-25T18:25:27.495840Z",
      "apogee_km": 484.03834093490786,
      "perigee_km": 482.03487824090826,
      "latitude_deg": -3.647011687504791e-05,
      "longitude_deg": 136.96022271993996,
      "height_km": 482.75742129754474,
      "semi_major_axis_km": 6861.173609587908,
      "eccentricity": 0.000146,
      "inclination_deg": 42.9993,
      "raan_deg": 267.1063,
      "arg_perigee_deg": 273.1973,
      "mean_anomaly_deg": 86.8711,
      "mean_motion_rev_day": 15.2758417
    },
    {
      "epoch": "2026-04-26T16:23:39.335424Z",
      "apogee_km": 484.0340390507781,
      "perigee_km": 482.0497861092599,
      "latitude_deg": 7.2921280455813475e-06,
      "longitude_deg": 161.33736414795584,
      "height_km": 482.82729747559614,
      "semi_major_axis_km": 6861.178912580019,
      "eccentricity": 0.0001446,
      "inclination_deg": 42.9993,
      "raan_deg": 261.935,
      "arg_perigee_deg": 269.4961,
      "mean_anomaly_deg": 90.5725,
      "mean_motion_rev_day": 15.27582399
    },
    {
      "epoch": "2026-04-27T19:04:18.662016Z",
      "apogee_km": 484.2385059083972,
      "perigee_km": 481.64639009294206,
      "latitude_deg": -3.1896850735349884e-05,
      "longitude_deg": 113.80105266444437,
      "height_km": 482.78784635018724,
      "semi_major_axis_km": 6861.07944800067,
      "eccentricity": 0.0001889,
      "inclination_deg": 43.0004,
      "raan_deg": 255.6582,
      "arg_perigee_deg": 266.9803,
      "mean_anomaly_deg": 93.0832,
      "mean_motion_rev_day": 15.27615617
    },
    {
      "epoch": "2026-04-28T18:36:40.117248Z",
      "apogee_km": 484.0206957461769,
      "perigee_km": 482.04330684000433,
      "latitude_deg": -3.276109665382352e-06,
      "longitude_deg": 114.20616268735553,
      "height_km": 482.72590480482023,
      "semi_major_axis_km": 6861.16900129309,
      "eccentricity": 0.0001441,
      "inclination_deg": 43.0007,
      "raan_deg": 250.1194,
      "arg_perigee_deg": 274.8108,
      "mean_anomaly_deg": 85.2579,
      "mean_motion_rev_day": 15.27585709
    },
    {
      "epoch": "2026-04-29T08:44:04.746048Z",
      "apogee_km": 483.4947256017149,
      "perigee_km": 482.51824766069785,
      "latitude_deg": -4.053017369569034e-06,
      "longitude_deg": -101.55018975251832,
      "height_km": 482.7726266458598,
      "semi_major_axis_km": 6861.143486631206,
      "eccentricity": 7.116e-05,
      "inclination_deg": 42.9992,
      "raan_deg": 246.7957,
      "arg_perigee_deg": 271.1584,
      "mean_anomaly_deg": 88.9186,
      "mean_motion_rev_day": 15.2759423
    },
    {
      "epoch": "2026-04-30T14:33:03.429216Z",
      "apogee_km": 483.993164453389,
      "perigee_km": 482.2302352124534,
      "latitude_deg": 2.9031823365379888e-05,
      "longitude_deg": 162.96502024171008,
      "height_km": 483.038762905242,
      "semi_major_axis_km": 6861.248699832921,
      "eccentricity": 0.00012847,
      "inclination_deg": 43.0011,
      "raan_deg": 239.7799,
      "arg_perigee_deg": 260.1776,
      "mean_anomaly_deg": 99.8931,
      "mean_motion_rev_day": 15.27559093
    },
    {
      "epoch": "2026-05-02T07:21:08.320320Z",
      "apogee_km": 484.120285837188,
      "perigee_km": 481.91099468702305,
      "latitude_deg": 3.116818626806908e-05,
      "longitude_deg": -100.33121154852421,
      "height_km": 483.0318315448901,
      "semi_major_axis_km": 6861.152640262105,
      "eccentricity": 0.000161,
      "inclination_deg": 43.0007,
      "raan_deg": 230.1797,
      "arg_perigee_deg": 257.4883,
      "mean_anomaly_deg": 102.5789,
      "mean_motion_rev_day": 15.27591173
    },
    {
      "epoch": "2026-05-03T16:18:23.884704Z",
      "apogee_km": 484.29705055126306,
      "perigee_km": 481.6267108668908,
      "latitude_deg": 4.4045622379310364e-05,
      "longitude_deg": 116.24666101965649,
      "height_km": 482.8453080033729,
      "semi_major_axis_km": 6861.098880709077,
      "eccentricity": 0.0001946,
      "inclination_deg": 43.0013,
      "raan_deg": 222.4258,
      "arg_perigee_deg": 265.4389,
      "mean_anomaly_deg": 94.6241,
      "mean_motion_rev_day": 15.27609127
    }
  ]
}